[{"OBJECT_NAME":"STARLINK-34787","OBJECT_ID":"2025-176G","EPOCH":"2026-03-09T22:43:31.092096","MEAN_MOTION":15.30200787,"ECCENTRICITY":0.00013805,"INCLINATION":53.1606,"RA_OF_ASC_NODE":151.2612,"ARG_OF_PERICENTER":89.6011,"MEAN_ANOMALY":270.5147,"EPHEMERIS_TYPE":0,"CLASSIFICATION_TYPE":"U","NORAD_CAT_ID":65204,"ELEMENT_SET_NO":999,"REV_AT_EPOCH":3316,"BSTAR":0.00096241233,"MEAN_MOTION_DOT":0.00028254,"MEAN_MOTION_DDOT":0},{"OBJECT_NAME":"OBJECT F","OBJECT_ID":"2021-022F","EPOCH":"2026-03-09T23:37:37.165152","MEAN_MOTION":15.31317672,"ECCENTRICITY":0.00120882,"INCLINATION":97.3982,"RA_OF_ASC_NODE":329.8375,"ARG_OF_PERICENTER":85.9268,"MEAN_ANOMALY":274.3355,"EPHEMERIS_TYPE":0,"CLASSIFICATION_TYPE":"U","NORAD_CAT_ID":47937,"ELEMENT_SET_NO":999,"REV_AT_EPOCH":27452,"BSTAR":0.00038690553,"MEAN_MOTION_DOT":0.00011656,"MEAN_MOTION_DDOT":0}]
